STARLINK-37589          
1 69839U 26154W   26200.83335647 -.00093844  00000+0 -47602-3 0  9993
2 69839  53.1582 269.5310 0000996  73.4057 145.5823 15.80921727  3381
STARLINK-37487          
1 69840U 26154X   26200.83335647 -.00135214  00000+0 -69001-3 0  9990
2 69840  53.1585 269.0492 0001159  67.0532  23.5882 15.80943133  3397
STARLINK-37433          
1 69841U 26154Y   26200.83335647 -.00102454  00000+0 -52060-3 0  9998
2 69841  53.1588 269.0503 0000975  69.2558  20.7636 15.80918977  3519
STARLINK-37588          
1 69842U 26154Z   26200.83335647 -.00098131  00000+0 -49830-3 0  9996
2 69842  53.1634 269.0148 0001141  50.5435  56.6593 15.80915849  3425
STARLINK-37579          
1 69843U 26154AA  26200.83335647 -.00100241  00000+0 -50916-3 0  9990
2 69843  53.1587 269.0179 0000735  81.6308  23.9929 15.80919210  3425
STARLINK-37584          
1 69844U 26154AB  26200.83335647 -.00084095  00000+0 -42585-3 0  9992
2 69844  53.1589 269.0102 0001645  43.5497  65.8910 15.80912960  3421
STARLINK-37606          
1 69845U 26154AC  26200.83335647 -.00099315  00000+0 -50431-3 0  9993
2 69845  53.1588 268.9983 0001064  91.5594  23.0417 15.80920727  3420
STARLINK-37603          
1 69846U 26154AD  26200.83335647 -.00084310  00000+0 -42699-3 0  9990
2 69846  53.1589 268.9915 0001086  74.3009  43.6454 15.80912722  3426
STARLINK-37595          
1 69847U 26154AE  26200.83335647 -.00116966  00000+0 -59560-3 0  9999
2 69847  53.1590 268.9800 0000867  71.6817  51.4622 15.80927974  3424
QIANFAN-219             
1 69848U 26155A   26200.57147292 -.01799626  00000+0 -87017+0 0  9994
2 69848  89.0059  60.4479 0029457 207.2393 152.7255 14.22001674  2007
QIANFAN-220             
1 69849U 26155B   26200.88345573  .00000042  00000+0  13542-4 0  9992
2 69849  89.0063  60.4200 0029803 206.4572 153.5097 14.17597853  2040
QIANFAN-221             
1 69850U 26155C   26200.85259097  .00000175  00000+0  66320-4 0  9995
2 69850  89.0063  60.4155 0030795 207.6230 152.3329 14.26648253  2043
QIANFAN-222             
1 69851U 26155D   26198.83195585  .00000049  00000+0  15570-4 0  9992
2 69851  89.0065  60.6495 0029555 214.6997 145.2267 14.22185075  1758
QIANFAN-223             
1 69852U 26155E   26200.09572403 -.02023195  00000+0 -10600+1 0  9999
2 69852  89.0058  60.5062 0034503 216.3041 143.5808 14.18104033  1930
QIANFAN-224             
1 69853U 26155F   26198.89566005 -.01809487  00000+0 -93450+0 0  9993
2 69853  89.0052  60.6399 0031114 224.5648 135.3039 14.18497223  1760
QIANFAN-225             
1 69854U 26155G   26200.30196266 -.02042683  00000+0 -10600+1 0  9997
2 69854  89.0056  60.4814 0034268 215.2357 144.6567 14.18662242  1968
QIANFAN-226             
1 69855U 26155H   26200.36989704 -.01814487  00000+0 -95337+0 0  9998
2 69855  89.0058  60.4729 0033600 218.1332 141.7479 14.17543510  1976
QIANFAN-227             
1 69856U 26155J   26200.43462891 -.01743430  00000+0 -91043+0 0  9999
2 69856  89.0058  60.4639 0034256 216.4994 143.3861 14.18343532  1987
QIANFAN-228             
1 69857U 26155K   26198.95854703 -.01902873  00000+0 -95328+0 0  9998
2 69857  89.0055  60.6322 0031877 218.7208 141.1698 14.20295178  1771
QIANFAN-229             
1 69858U 26155L   26199.87010617  .00000161  00000+0  60230-4 0  9994
2 69858  89.0064  60.5275 0030818 210.5909 149.3489 14.26690212  1907
QIANFAN-230             
1 69859U 26155M   26198.90384435 -.01931944  00000+0 -10463+1 0  9994
2 69859  89.0054  60.6411 0032961 222.0372 137.8286 14.16167691  1763
QIANFAN-231             
1 69860U 26155N   26199.94418398  .00000187  00000+0  71811-4 0  9998
2 69860  89.0065  60.5202 0030899 209.7131 150.2309 14.26097133  1913
QIANFAN-232             
1 69861U 26155P   26199.93898904 -.01928897  00000+0 -92873+0 0  9999
2 69861  89.0055  60.5197 0029251 204.9431 155.0349 14.22492911  1912
QIANFAN-233             
1 69862U 26155Q   26200.56899890 -.01641998  00000+0 -79470+0 0  9999
2 69862  89.0060  60.4472 0028686 211.5277 148.4197 14.22233601  2004
QIANFAN-234             
1 69863U 26155R   26200.85162407  .00000183  00000+0  69313-4 0  9991
2 69863  89.0064  60.4155 0030727 207.7190 152.2368 14.26759635  2048
QIANFAN-235             
1 69864U 26155S   26200.78143169  .00000161  00000+0  60076-4 0  9991
2 69864  89.0063  60.4235 0030675 207.9856 151.9690 14.26765417  2038
QIANFAN-236             
1 69865U 26155T   26200.08004672  .00000191  00000+0  72759-4 0  9994
2 69865  89.0064  60.5035 0030561 210.4183 149.5239 14.26770514  1939
QIANFAN-237             
1 69866U 26155U   26200.78129757  .00000171  00000+0  64449-4 0  9999
2 69866  89.0064  60.4235 0030619 208.0377 151.9169 14.26778897  2025
QIANFAN-238             
1 69867U 26155V   26200.85135692  .00000185  00000+0  70094-4 0  9991
2 69867  89.0064  60.4154 0030605 207.8330 152.1228 14.26786445  2046
CZ-8A R/B               
1 69868U 26155W   26200.77853605  .00000222  00000+0  50675-4 0  9999
2 69868  88.9655  60.3360 0106506  87.8037 273.5360 14.48271636  2054
